[{"OBJECT_NAME":"STARLINK-36737","OBJECT_ID":"2026-026V","EPOCH":"2026-03-09T22:00:01.999584","MEAN_MOTION":15.4917276,"ECCENTRICITY":0.00017552,"INCLINATION":97.284,"RA_OF_ASC_NODE":123.5348,"ARG_OF_PERICENTER":84.3492,"MEAN_ANOMALY":200.632,"EPHEMERIS_TYPE":0,"CLASSIFICATION_TYPE":"U","NORAD_CAT_ID":67740,"ELEMENT_SET_NO":999,"REV_AT_EPOCH":535,"BSTAR":-0.038918672,"MEAN_MOTION_DOT":-0.01901921,"MEAN_MOTION_DDOT":0},{"OBJECT_NAME":"BREEZE-M DEB","OBJECT_ID":"2006-006CU","EPOCH":"2026-03-07T22:14:14.143776","MEAN_MOTION":7.29966514,"ECCENTRICITY":0.39604911,"INCLINATION":51.5588,"RA_OF_ASC_NODE":237.796,"ARG_OF_PERICENTER":70.3802,"MEAN_ANOMALY":327.6093,"EPHEMERIS_TYPE":0,"CLASSIFICATION_TYPE":"U","NORAD_CAT_ID":36962,"ELEMENT_SET_NO":999,"REV_AT_EPOCH":25364,"BSTAR":0.027340128,"MEAN_MOTION_DOT":0.00073308,"MEAN_MOTION_DDOT":0}]
